[{"OBJECT_NAME":"EOS-08","OBJECT_ID":"2024-147A","EPOCH":"2026-03-09T22:14:35.464704","MEAN_MOTION":15.45433116,"ECCENTRICITY":0.00043204,"INCLINATION":37.3815,"RA_OF_ASC_NODE":324.8107,"ARG_OF_PERICENTER":300.1628,"MEAN_ANOMALY":59.8707,"EPHEMERIS_TYPE":0,"CLASSIFICATION_TYPE":"U","NORAD_CAT_ID":60454,"ELEMENT_SET_NO":999,"REV_AT_EPOCH":8770,"BSTAR":0.00090257159,"MEAN_MOTION_DOT":0.00044536,"MEAN_MOTION_DDOT":0},{"OBJECT_NAME":"STARLINK-36527","OBJECT_ID":"2026-020Q","EPOCH":"2026-03-09T22:00:01.999584","MEAN_MOTION":15.57466901,"ECCENTRICITY":0.00017124,"INCLINATION":42.9994,"RA_OF_ASC_NODE":140.4776,"ARG_OF_PERICENTER":283.3202,"MEAN_ANOMALY":141.7804,"EPHEMERIS_TYPE":0,"CLASSIFICATION_TYPE":"U","NORAD_CAT_ID":67631,"ELEMENT_SET_NO":999,"REV_AT_EPOCH":604,"BSTAR":-0.028699589,"MEAN_MOTION_DOT":-0.01911252,"MEAN_MOTION_DDOT":0}]
